SKYSAT-C7               
1 42991U 17068E   25110.31293212  .00129086  00000+0  40589-2 0  9992
2 42991  97.4017 241.1817 0001956 304.8046  55.3012 15.32436340417587
SKYSAT-C6               
1 42992U 17068F   25109.68910702  .00016032  00000+0  55158-3 0  9996
2 42992  97.4025 241.3742 0003822 154.9262 205.2165 15.30142063417505
CARTOSAT-2F             
1 43111U 18004A   25110.49383453  .00008137  12904-7  38593-3 0  9994
2 43111  97.4587 171.4440 0001066 201.8483 158.2706 15.19332354387050
GAOFEN-1 02             
1 43259U 18031A   25110.48907261  .00001573  00000+0  23228-3 0  9997
2 43259  97.7767 173.6440 0003282 276.5857  83.4979 14.76599076380328
GAOFEN-1 03             
1 43260U 18031B   25110.53506155  .00001633  00000+0  24085-3 0  9991
2 43260  97.7760 173.5861 0004759 323.1812  36.9071 14.76588600380326
GAOFEN-1 04             
1 43262U 18031D   25110.51074206  .00001631  00000+0  24041-3 0  9998
2 43262  97.7770 173.7032 0001573   2.4837 357.6381 14.76627125380318
SENTINEL-3B             
1 43437U 18039A   25109.18425733  .00000193  00000+0  97839-4 0  9994
2 43437  98.6331 177.7049 0001625  90.4778 269.6589 14.26733233363660
GAOFEN-5 01             
1 43461U 18043A   25110.45154580  .00000872  00000+0  19146-3 0  9995
2 43461  98.4010  69.8377 0001203 358.4538   1.6657 14.60097088369998
GAOFEN-6                
1 43484U 18048A   25110.48872031  .00001525  00000+0  22530-3 0  9993
2 43484  97.8256 182.2682 0014259  98.3557 261.9271 14.76564809371019
GAOFEN-11 01            
1 43585U 18063A   25110.54256295  .00017686  00000+0  41177-3 0  9990
2 43585  97.1834 176.2600 0008126  89.6238 270.5941 15.42307020374943
ICESAT-2                
1 43613U 18070A   25110.16145250  .00021258  00000+0  77234-3 0  9999
2 43613  91.9934 177.1958 0006188  61.0618 299.1251 15.28203215367854
HYSIS                   
1 43719U 18096A   25110.47088446  .00002312  84660-9  31664-3 0  9992
2 43719  98.0339 174.1738 0001675  82.6912 277.4489 14.78561116344952
KAZSTSAT                
1 43783U 18099AB  25110.08065622  .00002697  00000+0  22973-3 0  9999
2 43783  97.4820 155.1513 0008570  42.5327 317.6559 14.98544925347912
SAUDISAT 5A             
1 43831U 18102A   25110.46428506  .00009389  00000+0  40829-3 0  9999
2 43831  97.3616 175.3370 0011294 177.4949 182.6346 15.22422243351249
SAUDISAT 5B             
1 43833U 18102C   25110.45332589  .00008980  00000+0  38523-3 0  9999
2 43833  97.3691 177.6542 0011910 180.9243 179.1974 15.22889981351346
GAOFEN-10R              
1 44622U 19066A   25110.46311885  .00002881  00000+0  36563-3 0  9999
2 44622  98.0004  57.5336 0007297  77.9877 282.2153 14.82465896299736
CARTOSAT-3              
1 44804U 19081A   25110.43967131  .00007491  00000+0  35865-3 0  9992
2 44804  97.4851 172.5138 0014950 185.2279 174.8802 15.19147995299232
GAOFEN-12 01            
1 44819U 19082A   25110.45904736  .00000941  00000+0  13008-3 0  9991
2 44819  97.8162 122.8982 0001504 334.1034  26.0103 14.80329657291549
CSG-1                   
1 44873U 19092A   25110.50302236  .00001116  00000+0  14669-3 0  9994
2 44873  97.8877 295.2401 0001440  83.6528 276.4849 14.82164586288865
NEMO-HD                 
1 46277U 20061F   25110.49105766  .00012348  00000+0  36519-3 0  9996
2 46277  97.2488 173.0935 0002920 114.3198 245.8351 15.35048265256947
SENTINEL-6              
1 46984U 20086A   25109.91393026 -.00000038  00000+0  99693-4 0  9998
2 46984  66.0406 294.1977 0007861 271.3106  88.7008 12.80929656206115
GAOFEN-12 02            
1 48079U 21026A   25110.45927717  .00000994  00000+0  13729-3 0  9996
2 48079  97.9735 105.8093 0003171 128.3475 231.8022 14.80335342219214
PLEIADES NEO 3          
1 48268U 21034A   25110.49990204  .00002058  00000+0  26804-3 0  9991
2 48268  97.8936 186.3301 0001033 118.6743 241.4574 14.81672946215060
PLEIADES NEO 4          
1 49070U 21073E   25110.46612196  .00002004  00000+0  26125-3 0  9991
2 49070  97.8937 186.2920 0001186 125.1607 234.9717 14.81666025198775
LANDSAT 9               
1 49260U 21088A   25110.26120929  .00000812  00000+0  19025-3 0  9990
2 49260  98.1917 181.6094 0001088  90.2180 269.9143 14.57128454189401
CSG-2                   
1 51444U 22008A   25110.46925186  .00000835  00000+0  11135-3 0  9999
2 51444  97.8879 295.2071 0001430  87.3600 272.7777 14.82165220173973
GAOFEN-12 03            
1 52912U 22069A   25110.52797147  .00002565  00000+0  33705-3 0  9997
2 52912  97.8763   2.7225 0000920 259.2042 100.9067 14.81085959152094
SWOT                    
1 54754U 22173A   25110.19351466  .00000180  00000+0  12411-3 0  9994
2 54754  77.6096 246.3006 0000591 315.6828  44.4276 14.00170246119958
GAOFEN-12 04            
1 57654U 23123A   25110.49230789  .00002391  00000+0  31503-3 0  9998
2 57654  97.9109  29.7164 0003216  74.6085 285.5482 14.81036853 90108
PARS 1                  
1 59065U 24039Q   25110.54288846  .00013609  00000+0  39630-3 0  9999
2 59065  97.4360  78.0456 0011287 185.5203 174.5918 15.35461846 63589
RESURS-P 4              
1 59371U 24061A   25110.46812271  .00006767  00000+0  21066-3 0  9991
2 59371  97.2265  61.9995 0002552  62.5642 297.5861 15.33602485 59027
LEGION 1                
1 59625U 24081A   25109.91280110  .00006844  00000+0  35250-3 0  9990
2 59625  97.5375 186.0979 0004159 237.2794 122.8038 15.16713381 53376
LEGION 2                
1 59626U 24081B   25110.20782512  .00008474  00000+0  43548-3 0  9998
2 59626  97.5379 186.4738 0003140 258.6638 101.4242 15.16722787 53427
ALOS-4 (DAICHI-4)       
1 60182U 24123A   25110.52082461  .00003417  00000+0  46433-3 0  9993
2 60182  97.9198 208.7554 0001641 101.6256 258.5139 14.79465849 43384
LEGION 3                
1 60452U 24146A   25110.43968707  .00007298  00000+0  38609-3 0  9991
2 60452  45.0003 137.1454 0027670 314.3541  45.5071 15.15759935 37876
LEGION 4                
1 60453U 24146B   25110.44424313  .00009052  00000+0  47630-3 0  9997
2 60453  45.0371 228.1029 0006509 334.2901  25.7654 15.15989271 36721
SENTINEL-2C             
1 60989U 24157A   25110.16580153  .00000290  00000+0  12720-3 0  9994
2 60989  98.5638 186.1052 0001122  93.0750 267.0561 14.30813599 32494
